JAS-2 (FO-29)           
1 24278U 96046B   26116.55564595  .00000008  00000+0  46245-4 0  9990
2 24278  98.5302 332.4819 0349048 230.3208 126.6666 13.53271655466184
FORTE                   
1 24920U 97047A   26116.46814301  .00000192  00000+0  10071-3 0  9990
2 24920  69.9510 130.8393 0022690 341.4282  18.6010 14.27922155491300
NOAA 15                 
1 25338U 98030A   26116.51449367  .00000153  00000+0  80286-4 0  9992
2 25338  98.5103 138.5355 0011151 134.5700 225.6393 14.27130224453927
TECHSAT 1B (GO-32)      
1 25397U 98043D   26116.50584559  .00000072  00000+0  51298-4 0  9994
2 25397  99.0061 107.9654 0001773  42.7573 317.3743 14.24417847443978
ISS (ZARYA)             
1 25544U 98067A   26116.52257038  .00009972  00000+0  18903-3 0  9998
2 25544  51.6321 195.8185 0006977 353.1614   6.9278 15.48971361563741
ORSTED                  
1 25635U 99008B   26116.28194304  .00000791  00000+0  18326-3 0  9993
2 25635  96.4837  35.5826 0131719 353.9188   6.0406 14.51755112434434
LANDSAT 7               
1 25682U 99020A   26116.51835406  .00000470  00000+0  98529-4 0  9998
2 25682  97.8594 122.5225 0001167  94.6826  57.3567 14.63871679438286
ORBCOMM FM36            
1 25984U 99065E   26115.48957845  .00000842  00000+0  31566-3 0  9999
2 25984  45.0400  49.7365 0003123  37.2539 322.8526 14.39096116379394
DMSP 5D-3 F15 (USA 147) 
1 25991U 99067A   26116.50106206  .00000165  00000+0  10366-3 0  9993
2 25991  99.0010 154.3993 0010719 145.0437 352.3167 14.17543505363322
OPAL (OO-38)            
1 26063U 00004C   26116.33928742  .00000121  00000+0  59115-4 0  9993
2 26063 100.1898  43.6067 0035718 180.4930 179.6222 14.37945392375833
IMAGE                   
1 26113U 00017A   26115.50651904  .00000098  00000+0  38868-2 0  9997
2 26113  94.1879 314.6723 7471665 293.8028   7.8719  1.68665580160618
CLUSTER II-FM7 (SAMBA)  
1 26410U 00041A   26116.81760381  .00002042  00000+0  00000+0 0  9994
2 26410 149.6713  42.1462 8992296 258.6890   0.4419  0.44809102 20073
CLUSTER II-FM8 (TANGO)  
1 26464U 00045B   26116.63281142  .00002138  00000+0  00000+0 0  9996
2 26464 149.9394  43.1014 8995813 259.4942   0.9419  0.44399945 20062
MEGSAT-1                
1 26546U 00057B   26116.45885733  .00003668  00000+0  26412-3 0  9994
2 26546  64.5500 234.8342 0040295 289.4650  70.2116 15.05195206389871
PHASE 3D (AO-40)        
1 26609U 00072B   26115.17202369 -.00000285  00000+0  00000+0 0  9991
2 26609   9.5037 359.1846 7934401 161.8495 265.2104  1.25588532116846
ODIN                    
1 26702U 01007A   26116.48368911  .00058267  00000+0  63338-3 0  9994
2 26702  97.3971 154.6341 0001789  37.7051 322.4333 15.63290981381294
OMNI-M1                 
1 26857U 01026A   26116.50449469 -.00000038  00000+0  00000+0 0  9994
2 26857  44.8512 257.1743 0015979  43.7076 316.4248  3.92401515203543
