[{"OBJECT_NAME":"JAS-2 (FO-29)","OBJECT_ID":"1996-046B","EPOCH":"2026-04-26T13:20:07.810080","MEAN_MOTION":13.53271655,"ECCENTRICITY":0.0349048,"INCLINATION":98.5302,"RA_OF_ASC_NODE":332.4819,"ARG_OF_PERICENTER":230.3208,"MEAN_ANOMALY":126.6666,"EPHEMERIS_TYPE":0,"CLASSIFICATION_TYPE":"U","NORAD_CAT_ID":24278,"ELEMENT_SET_NO":999,"REV_AT_EPOCH":46618,"BSTAR":4.6245e-5,"MEAN_MOTION_DOT":8.0e-8,"MEAN_MOTION_DDOT":0},{"OBJECT_NAME":"FORTE","OBJECT_ID":"1997-047A","EPOCH":"2026-04-26T11:14:07.556064","MEAN_MOTION":14.27922155,"ECCENTRICITY":0.002269,"INCLINATION":69.951,"RA_OF_ASC_NODE":130.8393,"ARG_OF_PERICENTER":341.4282,"MEAN_ANOMALY":18.601,"EPHEMERIS_TYPE":0,"CLASSIFICATION_TYPE":"U","NORAD_CAT_ID":24920,"ELEMENT_SET_NO":999,"REV_AT_EPOCH":49130,"BSTAR":0.00010071,"MEAN_MOTION_DOT":1.92e-6,"MEAN_MOTION_DDOT":0},{"OBJECT_NAME":"NOAA 15","OBJECT_ID":"1998-030A","EPOCH":"2026-04-26T12:20:52.253088","MEAN_MOTION":14.27130224,"ECCENTRICITY":0.0011151,"INCLINATION":98.5103,"RA_OF_ASC_NODE":138.5355,"ARG_OF_PERICENTER":134.57,"MEAN_ANOMALY":225.6393,"EPHEMERIS_TYPE":0,"CLASSIFICATION_TYPE":"U","NORAD_CAT_ID":25338,"ELEMENT_SET_NO":999,"REV_AT_EPOCH":45392,"BSTAR":8.0286e-5,"MEAN_MOTION_DOT":1.53e-6,"MEAN_MOTION_DDOT":0},{"OBJECT_NAME":"TECHSAT 1B (GO-32)","OBJECT_ID":"1998-043D","EPOCH":"2026-04-26T12:08:25.058976","MEAN_MOTION":14.24417847,"ECCENTRICITY":0.0001773,"INCLINATION":99.0061,"RA_OF_ASC_NODE":107.9654,"ARG_OF_PERICENTER":42.7573,"MEAN_ANOMALY":317.3743,"EPHEMERIS_TYPE":0,"CLASSIFICATION_TYPE":"U","NORAD_CAT_ID":25397,"ELEMENT_SET_NO":999,"REV_AT_EPOCH":44397,"BSTAR":5.1298e-5,"MEAN_MOTION_DOT":7.2e-7,"MEAN_MOTION_DDOT":0},{"OBJECT_NAME":"ISS (ZARYA)","OBJECT_ID":"1998-067A","EPOCH":"2026-04-26T12:32:30.080832","MEAN_MOTION":15.48971361,"ECCENTRICITY":0.0006977,"INCLINATION":51.6321,"RA_OF_ASC_NODE":195.8185,"ARG_OF_PERICENTER":353.1614,"MEAN_ANOMALY":6.9278,"EPHEMERIS_TYPE":0,"CLASSIFICATION_TYPE":"U","NORAD_CAT_ID":25544,"ELEMENT_SET_NO":999,"REV_AT_EPOCH":56374,"BSTAR":0.00018903,"MEAN_MOTION_DOT":9.972e-5,"MEAN_MOTION_DDOT":0},{"OBJECT_NAME":"ORSTED","OBJECT_ID":"1999-008B","EPOCH":"2026-04-26T06:45:59.878656","MEAN_MOTION":14.51755112,"ECCENTRICITY":0.0131719,"INCLINATION":96.4837,"RA_OF_ASC_NODE":35.5826,"ARG_OF_PERICENTER":353.9188,"MEAN_ANOMALY":6.0406,"EPHEMERIS_TYPE":0,"CLASSIFICATION_TYPE":"U","NORAD_CAT_ID":25635,"ELEMENT_SET_NO":999,"REV_AT_EPOCH":43443,"BSTAR":0.00018326,"MEAN_MOTION_DOT":7.91e-6,"MEAN_MOTION_DDOT":0},{"OBJECT_NAME":"LANDSAT 7","OBJECT_ID":"1999-020A","EPOCH":"2026-04-26T12:26:25.790784","MEAN_MOTION":14.63871679,"ECCENTRICITY":0.0001167,"INCLINATION":97.8594,"RA_OF_ASC_NODE":122.5225,"ARG_OF_PERICENTER":94.6826,"MEAN_ANOMALY":57.3567,"EPHEMERIS_TYPE":0,"CLASSIFICATION_TYPE":"U","NORAD_CAT_ID":25682,"ELEMENT_SET_NO":999,"REV_AT_EPOCH":43828,"BSTAR":9.8529e-5,"MEAN_MOTION_DOT":4.7e-6,"MEAN_MOTION_DDOT":0},{"OBJECT_NAME":"ORBCOMM FM36","OBJECT_ID":"1999-065E","EPOCH":"2026-04-25T11:44:59.578080","MEAN_MOTION":14.39096116,"ECCENTRICITY":0.0003123,"INCLINATION":45.04,"RA_OF_ASC_NODE":49.7365,"ARG_OF_PERICENTER":37.2539,"MEAN_ANOMALY":322.8526,"EPHEMERIS_TYPE":0,"CLASSIFICATION_TYPE":"U","NORAD_CAT_ID":25984,"ELEMENT_SET_NO":999,"REV_AT_EPOCH":37939,"BSTAR":0.00031565924,"MEAN_MOTION_DOT":8.42e-6,"MEAN_MOTION_DDOT":0},{"OBJECT_NAME":"DMSP 5D-3 F15 (USA 147)","OBJECT_ID":"1999-067A","EPOCH":"2026-04-26T12:01:31.761984","MEAN_MOTION":14.17543505,"ECCENTRICITY":0.0010719,"INCLINATION":99.001,"RA_OF_ASC_NODE":154.3993,"ARG_OF_PERICENTER":145.0437,"MEAN_ANOMALY":352.3167,"EPHEMERIS_TYPE":0,"CLASSIFICATION_TYPE":"U","NORAD_CAT_ID":25991,"ELEMENT_SET_NO":999,"REV_AT_EPOCH":36332,"BSTAR":0.00010366,"MEAN_MOTION_DOT":1.65e-6,"MEAN_MOTION_DDOT":0},{"OBJECT_NAME":"OPAL (OO-38)","OBJECT_ID":"2000-004C","EPOCH":"2026-04-26T08:08:34.433088","MEAN_MOTION":14.37945392,"ECCENTRICITY":0.0035718,"INCLINATION":100.1898,"RA_OF_ASC_NODE":43.6067,"ARG_OF_PERICENTER":180.493,"MEAN_ANOMALY":179.6222,"EPHEMERIS_TYPE":0,"CLASSIFICATION_TYPE":"U","NORAD_CAT_ID":26063,"ELEMENT_SET_NO":999,"REV_AT_EPOCH":37583,"BSTAR":5.9115e-5,"MEAN_MOTION_DOT":1.21e-6,"MEAN_MOTION_DDOT":0},{"OBJECT_NAME":"IMAGE","OBJECT_ID":"2000-017A","EPOCH":"2026-04-25T12:09:23.245056","MEAN_MOTION":1.6866558,"ECCENTRICITY":0.74716651,"INCLINATION":94.1879,"RA_OF_ASC_NODE":314.6723,"ARG_OF_PERICENTER":293.8028,"MEAN_ANOMALY":7.8719,"EPHEMERIS_TYPE":0,"CLASSIFICATION_TYPE":"U","NORAD_CAT_ID":26113,"ELEMENT_SET_NO":999,"REV_AT_EPOCH":16061,"BSTAR":0.0038868238,"MEAN_MOTION_DOT":9.8e-7,"MEAN_MOTION_DDOT":0},{"OBJECT_NAME":"CLUSTER II-FM7 (SAMBA)","OBJECT_ID":"2000-041A","EPOCH":"2026-04-26T19:37:20.969184","MEAN_MOTION":0.44809102,"ECCENTRICITY":0.89922964,"INCLINATION":149.6713,"RA_OF_ASC_NODE":42.1462,"ARG_OF_PERICENTER":258.689,"MEAN_ANOMALY":0.4419,"EPHEMERIS_TYPE":0,"CLASSIFICATION_TYPE":"U","NORAD_CAT_ID":26410,"ELEMENT_SET_NO":999,"REV_AT_EPOCH":2007,"BSTAR":0,"MEAN_MOTION_DOT":2.042e-5,"MEAN_MOTION_DDOT":0},{"OBJECT_NAME":"CLUSTER II-FM8 (TANGO)","OBJECT_ID":"2000-045B","EPOCH":"2026-04-26T15:11:14.906688","MEAN_MOTION":0.44399945,"ECCENTRICITY":0.89958136,"INCLINATION":149.9394,"RA_OF_ASC_NODE":43.1014,"ARG_OF_PERICENTER":259.4942,"MEAN_ANOMALY":0.9419,"EPHEMERIS_TYPE":0,"CLASSIFICATION_TYPE":"U","NORAD_CAT_ID":26464,"ELEMENT_SET_NO":999,"REV_AT_EPOCH":2006,"BSTAR":0,"MEAN_MOTION_DOT":2.138e-5,"MEAN_MOTION_DDOT":0},{"OBJECT_NAME":"MEGSAT-1","OBJECT_ID":"2000-057B","EPOCH":"2026-04-26T11:00:45.273312","MEAN_MOTION":15.05195206,"ECCENTRICITY":0.0040295,"INCLINATION":64.55,"RA_OF_ASC_NODE":234.8342,"ARG_OF_PERICENTER":289.465,"MEAN_ANOMALY":70.2116,"EPHEMERIS_TYPE":0,"CLASSIFICATION_TYPE":"U","NORAD_CAT_ID":26546,"ELEMENT_SET_NO":999,"REV_AT_EPOCH":38987,"BSTAR":0.00026412,"MEAN_MOTION_DOT":3.668e-5,"MEAN_MOTION_DDOT":0},{"OBJECT_NAME":"PHASE 3D (AO-40)","OBJECT_ID":"2000-072B","EPOCH":"2026-04-25T04:07:42.846816","MEAN_MOTION":1.25588532,"ECCENTRICITY":0.79344012,"INCLINATION":9.5037,"RA_OF_ASC_NODE":359.1846,"ARG_OF_PERICENTER":161.8495,"MEAN_ANOMALY":265.2104,"EPHEMERIS_TYPE":0,"CLASSIFICATION_TYPE":"U","NORAD_CAT_ID":26609,"ELEMENT_SET_NO":999,"REV_AT_EPOCH":11684,"BSTAR":0,"MEAN_MOTION_DOT":-2.85e-6,"MEAN_MOTION_DDOT":0},{"OBJECT_NAME":"ODIN","OBJECT_ID":"2001-007A","EPOCH":"2026-04-26T11:36:30.739104","MEAN_MOTION":15.63290981,"ECCENTRICITY":0.0001789,"INCLINATION":97.3971,"RA_OF_ASC_NODE":154.6341,"ARG_OF_PERICENTER":37.7051,"MEAN_ANOMALY":322.4333,"EPHEMERIS_TYPE":0,"CLASSIFICATION_TYPE":"U","NORAD_CAT_ID":26702,"ELEMENT_SET_NO":999,"REV_AT_EPOCH":38129,"BSTAR":0.00063338,"MEAN_MOTION_DOT":0.00058267,"MEAN_MOTION_DDOT":0},{"OBJECT_NAME":"OMNI-M1","OBJECT_ID":"2001-026A","EPOCH":"2026-04-26T12:06:28.341216","MEAN_MOTION":3.92401515,"ECCENTRICITY":0.0015979,"INCLINATION":44.8512,"RA_OF_ASC_NODE":257.1743,"ARG_OF_PERICENTER":43.7076,"MEAN_ANOMALY":316.4248,"EPHEMERIS_TYPE":0,"CLASSIFICATION_TYPE":"U","NORAD_CAT_ID":26857,"ELEMENT_SET_NO":999,"REV_AT_EPOCH":20354,"BSTAR":0,"MEAN_MOTION_DOT":-3.8e-7,"MEAN_MOTION_DDOT":0}]
